ONEWEB-0665             
1 55825U 23029AF  24309.77837712 -.00000056  00000+0 -18650-3 0  9996
2 55825  87.9031  46.9266 0001936  94.5234 265.6117 13.14505354 81978
ONEWEB-0666             
1 55826U 23029AG  24309.79731169  .00000090  00000+0  19002-3 0  9996
2 55826  87.9298  31.7264 0001548 112.3367 247.7930 13.20768194 83357
ONEWEB-0667             
1 55827U 23029AH  24309.94252788  .00000097  00000+0  20681-3 0  9991
2 55827  87.9297  31.6303 0002044 102.0261 258.1101 13.20771843 83363
ONEWEB-0671             
1 55830U 23029AL  24309.81539485  .00000181  00000+0  41908-3 0  9992
2 55830  87.9176  62.1798 0001943 101.3306 258.8045 13.19725149 81165
ONEWEB-0673             
1 55832U 23029AN  24309.86749605  .00000203  00000+0  47535-3 0  9993
2 55832  87.9177  62.1351 0001736  89.8446 270.2886 13.19726319 81170
